{"type": "FeatureCollection", "features": [ {"type": "Feature", "properties": {"norad_id": 43010, "name": "FENGYUN 3D", "group": "weather", "lat": -50.446291555185525, "lon": -25.538744152198053, "alt_km": 834.1993912130656, "timestamp": "2025-12-22T22:44:20.594038+00:00", "meta": {"OBJECT_NAME": "FENGYUN 3D", "OBJECT_ID": "2017-072A", "EPOCH": "2025-12-22T14:31:23.256192", "MEAN_MOTION": 14.19687066, "ECCENTRICITY": 0.00014153, "INCLINATION": 98.9903, "RA_OF_ASC_NODE": 323.0629, "ARG_OF_PERICENTER": 154.2824, "MEAN_ANOMALY": 205.8422, "EPHEMERIS_TYPE": 0, "CLASSIFICATION_TYPE": "U", "NORAD_CAT_ID": 43010, "ELEMENT_SET_NO": 999, "REV_AT_EPOCH": 41993, "BSTAR": 0.00012497345, "MEAN_MOTION_DOT": 2.18e-06, "MEAN_MOTION_DDOT": 0}, "tle": {"line1": "1 43010U 17072A   25356.60513028  .00000218  00000+0  12497-3 0  9997", "line2": "2 43010  98.9903 323.0629 0001415 154.2824 205.8422 14.19687066419937"}}, "geometry": {"type": "Point", "coordinates": [-25.538744152198053, -50.446291555185525]}}, {"type": "Feature", "properties": {"norad_id": 43013, "name": "NOAA 20 (JPSS-1)", "group": "weather", "lat": 79.87249929625042, "lon": 172.8285983278083, "alt_km": 818.1335200545691, "timestamp": "2025-12-22T22:44:20.594050+00:00", "meta": {"OBJECT_NAME": "NOAA 20 (JPSS-1)", "OBJECT_ID": "2017-073A", "EPOCH": "2025-12-22T13:50:04.924896", "MEAN_MOTION": 14.19528174, "ECCENTRICITY": 0.00021195, "INCLINATION": 98.7613, "RA_OF_ASC_NODE": 292.7661, "ARG_OF_PERICENTER": 73.0984, "MEAN_ANOMALY": 287.0424, "EPHEMERIS_TYPE": 0, "CLASSIFICATION_TYPE": "U", "NORAD_CAT_ID": 43013, "ELEMENT_SET_NO": 999, "REV_AT_EPOCH": 41941, "BSTAR": 6.0053278e-05, "MEAN_MOTION_DOT": 8.3e-07, "MEAN_MOTION_DDOT": 0}, "tle": {"line1": "1 43013U 17073A   25356.57644589  .00000083  00000+0  60053-4 0  9996", "line2": "2 43013  98.7613 292.7661 0002119  73.0984 287.0424 14.19528174419412"}}, "geometry": {"type": "Point", "coordinates": [172.8285983278083, 79.87249929625042]}}, {"type": "Feature", "properties": {"norad_id": 43226, "name": "GOES 17", "group": "weather", "lat": -0.47417730539515995, "lon": -16.648880221382456, "alt_km": 35780.15064952087, "timestamp": "2025-12-22T22:44:20.594063+00:00", "meta": {"OBJECT_NAME": "GOES 17", "OBJECT_ID": "2018-022A", "EPOCH": "2025-12-22T11:01:35.410368", "MEAN_MOTION": 1.00273476, "ECCENTRICITY": 0.00030248, "INCLINATION": 0.4812, "RA_OF_ASC_NODE": 89.105, "ARG_OF_PERICENTER": 189.9361, "MEAN_ANOMALY": 248.1131, "EPHEMERIS_TYPE": 0, "CLASSIFICATION_TYPE": "U", "NORAD_CAT_ID": 43226, "ELEMENT_SET_NO": 999, "REV_AT_EPOCH": 2865, "BSTAR": 0, "MEAN_MOTION_DOT": -1.61e-06, "MEAN_MOTION_DDOT": 0}, "tle": {"line1": "1 43226U 18022A   25356.45943762 -.00000161  00000+0  00000+0 0  9998", "line2": "2 43226   0.4812  89.1050 0003024 189.9361 248.1131  1.00273476 28654"}}, "geometry": {"type": "Point", "coordinates": [-16.648880221382456, -0.47417730539515995]}}, {"type": "Feature", "properties": {"norad_id": 43491, "name": "FENGYUN 2H", "group": "weather", "lat": 2.4501802709066345, "lon": 152.1280371494481, "alt_km": 35786.93779789522, "timestamp": "2025-12-22T22:44:20.594076+00:00", "meta": {"OBJECT_NAME": "FENGYUN 2H", "OBJECT_ID": "2018-050A", "EPOCH": "2025-12-22T13:32:37.248864", "MEAN_MOTION": 1.00271007, "ECCENTRICITY": 0.00023655, "INCLINATION": 2.5747, "RA_OF_ASC_NODE": 81.2262, "ARG_OF_PERICENTER": 166.1147, "MEAN_ANOMALY": 126.5288, "EPHEMERIS_TYPE": 0, "CLASSIFICATION_TYPE": "U", "NORAD_CAT_ID": 43491, "ELEMENT_SET_NO": 999, "REV_AT_EPOCH": 2766, "BSTAR": 0, "MEAN_MOTION_DOT": -1.09e-06, "MEAN_MOTION_DDOT": 0}, "tle": {"line1": "1 43491U 18050A   25356.56432001 -.00000109  00000+0  00000+0 0  9996", "line2": "2 43491   2.5747  81.2262 0002365 166.1147 126.5288  1.00271007 27662"}}, "geometry": {"type": "Point", "coordinates": [152.1280371494481, 2.4501802709066345]}}, {"type": "Feature", "properties": {"norad_id": 43689, "name": "METOP-C", "group": "weather", "lat": -51.319489293529784, "lon": 65.57497805506978, "alt_km": 827.0544024642932, "timestamp": "2025-12-22T22:44:20.594097+00:00", "meta": {"OBJECT_NAME": "METOP-C", "OBJECT_ID": "2018-087A", "EPOCH": "2025-12-22T12:50:52.899072", "MEAN_MOTION": 14.21488011, "ECCENTRICITY": 7.696e-05, "INCLINATION": 98.6915, "RA_OF_ASC_NODE": 54.1542, "ARG_OF_PERICENTER": 21.4234, "MEAN_ANOMALY": 338.6976, "EPHEMERIS_TYPE": 0, "CLASSIFICATION_TYPE": "U", "NORAD_CAT_ID": 43689, "ELEMENT_SET_NO": 999, "REV_AT_EPOCH": 36973, "BSTAR": 8.1090432e-05, "MEAN_MOTION_DOT": 1.34e-06, "MEAN_MOTION_DDOT": 0}, "tle": {"line1": "1 43689U 18087A   25356.53533448  .00000134  00000+0  81090-4 0  9999", "line2": "2 43689  98.6915  54.1542 0000769  21.4234 338.6976 14.21488011369739"}}, "geometry": {"type": "Point", "coordinates": [65.57497805506978, -51.319489293529784]}}, {"type": "Feature", "properties": {"norad_id": 43823, "name": "GEO-KOMPSAT-2A", "group": "weather", "lat": 0.03637552053844741, "lon": -158.91003653197973, "alt_km": 35787.05403789649, "timestamp": "2025-12-22T22:44:20.594109+00:00", "meta": {"OBJECT_NAME": "GEO-KOMPSAT-2A", "OBJECT_ID": "2018-100A", "EPOCH": "2025-12-22T12:31:42.879648", "MEAN_MOTION": 1.00270091, "ECCENTRICITY": 3.785e-05, "INCLINATION": 0.0513, "RA_OF_ASC_NODE": 127.1383, "ARG_OF_PERICENTER": 328.0909, "MEAN_ANOMALY": 312.2897, "EPHEMERIS_TYPE": 0, "CLASSIFICATION_TYPE": "U", "NORAD_CAT_ID": 43823, "ELEMENT_SET_NO": 999, "REV_AT_EPOCH": 2585, "BSTAR": 0, "MEAN_MOTION_DOT": -3.22e-06, "MEAN_MOTION_DDOT": 0}, "tle": {"line1": "1 43823U 18100A   25356.52202407 -.00000322  00000+0  00000+0 0  9999", "line2": "2 43823   0.0513 127.1383 0000378 328.0909 312.2897  1.00270091 25857"}}, "geometry": {"type": "Point", "coordinates": [-158.91003653197973, 0.03637552053844741]}}, {"type": "Feature", "properties": {"norad_id": 44387, "name": "METEOR-M2 2", "group": "weather", "lat": 53.75906901477603, "lon": 169.14152460282799, "alt_km": 804.5173642069994, "timestamp": "2025-12-22T22:44:20.594120+00:00", "meta": {"OBJECT_NAME": "METEOR-M2 2", "OBJECT_ID": "2019-038A", "EPOCH": "2025-12-22T20:28:02.149824", "MEAN_MOTION": 14.2429573, "ECCENTRICITY": 0.0001721, "INCLINATION": 98.8977, "RA_OF_ASC_NODE": 336.7052, "ARG_OF_PERICENTER": 128.9954, "MEAN_ANOMALY": 231.1378, "EPHEMERIS_TYPE": 0, "CLASSIFICATION_TYPE": "U", "NORAD_CAT_ID": 44387, "ELEMENT_SET_NO": 999, "REV_AT_EPOCH": 33619, "BSTAR": 9.446e-05, "MEAN_MOTION_DOT": 1.72e-06, "MEAN_MOTION_DDOT": 0}, "tle": {"line1": "1 44387U 19038A   25356.85280266  .00000172  00000+0  94460-4 0  9991", "line2": "2 44387  98.8977 336.7052 0001721 128.9954 231.1378 14.24295730336195"}}, "geometry": {"type": "Point", "coordinates": [169.14152460282799, 53.75906901477603]}}, {"type": "Feature", "properties": {"norad_id": 47719, "name": "ARKTIKA-M 1", "group": "weather", "lat": 43.125781027931644, "lon": -125.58662093632537, "alt_km": 21673.648442866288, "timestamp": "2025-12-22T22:44:20.594133+00:00", "meta": {"OBJECT_NAME": "ARKTIKA-M 1", "OBJECT_ID": "2021-016A", "EPOCH": "2025-12-22T01:06:25.193952", "MEAN_MOTION": 2.00630804, "ECCENTRICITY": 0.72089477, "INCLINATION": 63.1758, "RA_OF_ASC_NODE": 82.7279, "ARG_OF_PERICENTER": 269.1606, "MEAN_ANOMALY": 15.5458, "EPHEMERIS_TYPE": 0, "CLASSIFICATION_TYPE": "U", "NORAD_CAT_ID": 47719, "ELEMENT_SET_NO": 999, "REV_AT_EPOCH": 3523, "BSTAR": 0, "MEAN_MOTION_DOT": -8.3e-07, "MEAN_MOTION_DDOT": 0}, "tle": {"line1": "1 47719U 21016A   25356.04612493 -.00000083  00000+0  00000+0 0  9998", "line2": "2 47719  63.1758  82.7279 7208947 269.1606  15.5458  2.00630804 35236"}}, "geometry": {"type": "Point", "coordinates": [-125.58662093632537, 43.125781027931644]}}, {"type": "Feature", "properties": {"norad_id": 49008, "name": "FENGYUN 3E", "group": "weather", "lat": -74.86983562121429, "lon": 32.055995004049656, "alt_km": 832.973993111149, "timestamp": "2025-12-22T22:44:20.594144+00:00", "meta": {"OBJECT_NAME": "FENGYUN 3E", "OBJECT_ID": "2021-062A", "EPOCH": "2025-12-22T14:38:52.567296", "MEAN_MOTION": 14.19881195, "ECCENTRICITY": 8.242e-05, "INCLINATION": 98.747, "RA_OF_ASC_NODE": 357.0141, "ARG_OF_PERICENTER": 200.6383, "MEAN_ANOMALY": 159.476, "EPHEMERIS_TYPE": 0, "CLASSIFICATION_TYPE": "U", "NORAD_CAT_ID": 49008, "ELEMENT_SET_NO": 999, "REV_AT_EPOCH": 23152, "BSTAR": -1.3738443e-05, "MEAN_MOTION_DOT": -7.3e-07, "MEAN_MOTION_DDOT": 0}, "tle": {"line1": "1 49008U 21062A   25356.61033064 -.00000073  00000+0 -13738-4 0  9993", "line2": "2 49008  98.7470 357.0141 0000824 200.6383 159.4760 14.19881195231527"}}, "geometry": {"type": "Point", "coordinates": [32.055995004049656, -74.86983562121429]}}, {"type": "Feature", "properties": {"norad_id": 51850, "name": "GOES 18", "group": "weather", "lat": -0.01041807478580301, "lon": -64.17691847975628, "alt_km": 35785.21235626035, "timestamp": "2025-12-22T22:44:20.594158+00:00", "meta": {"OBJECT_NAME": "GOES 18", "OBJECT_ID": "2022-021A", "EPOCH": "2025-12-22T11:42:38.740896", "MEAN_MOTION": 1.00270635, "ECCENTRICITY": 3.173e-05, "INCLINATION": 0.0066, "RA_OF_ASC_NODE": 90.9101, "ARG_OF_PERICENTER": 235.7783, "MEAN_ANOMALY": 163.2679, "EPHEMERIS_TYPE": 0, "CLASSIFICATION_TYPE": "U", "NORAD_CAT_ID": 51850, "ELEMENT_SET_NO": 999, "REV_AT_EPOCH": 482, "BSTAR": 0, "MEAN_MOTION_DOT": 1.18e-06, "MEAN_MOTION_DDOT": 0}, "tle": {"line1": "1 51850U 22021A   25356.48794839  .00000118  00000+0  00000+0 0  9997", "line2": "2 51850   0.0066  90.9101 0000317 235.7783 163.2679  1.00270635  4821"}}, "geometry": {"type": "Point", "coordinates": [-64.17691847975628, -0.01041807478580301]}}]}